STARLINK-31918          
1 60037U 24111X   26068.34409352 -.00000798  00000+0 -14833-4 0  9995
2 60037  53.1608  77.0086 0001396  95.6385 264.4775 15.30187059 98915
NUSAT-50 (NANCY ROMAN)  
1 60493U 24149AB  26068.80227738  .00012094  00000+0  42252-3 0  9994
2 60493  97.3817 150.7693 0002523 238.0469 122.0527 15.29713355 86930
